NORAD_CAT_ID,OBJECT_NAME,OBJECT_TYPE,EPOCH,MEAN_MOTION,ECCENTRICITY,INCLINATION,RA_OF_ASC_NODE,ARG_OF_PERICENTER,MEAN_ANOMALY,BSTAR,MEAN_MOTION_DOT,MEAN_MOTION_DDOT,TLE_LINE0,TLE_LINE1,TLE_LINE2,SEMIMAJOR_AXIS,PERIOD,APOGEE,PERIGEE,DECAYED
55434.0,STARLINK-5621,PAYLOAD,2024-06-10 16:51:55,14.98339351,0.0003495,70.0008,270.5456,265.6426,94.4333,0.0011776,0.0001399,0.0,0 STARLINK-5621,1 55434U 23014AV  24162.70272798  .00013990  00000-0  11776-2 0  9994,2 55434  70.0008 270.5456 0003495 265.6426  94.4333 14.98339351 75654,6950.164,96.106,574.458,569.6,0.0
55434.0,STARLINK-5621,PAYLOAD,2024-06-11 00:52:35,14.9834411,0.0003508,70.0008,269.7033,265.5031,94.5727,0.0010717,0.00012723,0.0,0 STARLINK-5621,1 55434U 23014AV  24163.03652634  .00012723  00000-0  10717-2 0  9999,2 55434  70.0008 269.7033 0003508 265.5031  94.5727 14.98344110 74769,6950.149,96.106,574.452,569.576,0.0
55434.0,STARLINK-5621,PAYLOAD,2024-06-11 13:41:40,14.98344532,0.000346,70.0006,268.3577,266.1243,93.9521,0.00067693,7.996e-05,0.0,0 STARLINK-5621,1 55434U 23014AV  24163.57060436  .00007996  00000-0  67693-3 0  9993,2 55434  70.0006 268.3577 0003460 266.1243  93.9521 14.98344532 75780,6950.148,96.106,574.418,569.608,0.0
55434.0,STARLINK-5621,PAYLOAD,2024-06-12 00:54:36,14.9833973,0.0003465,70.0005,267.1774,266.518,93.5582,0.00017826,2.035e-05,0.0,0 STARLINK-5621,1 55434U 23014AV  24164.03792219  .00002035  00000-0  17826-3 0  9998,2 55434  70.0005 267.1774 0003465 266.5180  93.5582 14.98339730 74915,6950.163,96.106,574.436,569.62,0.0
55434.0,STARLINK-5621,PAYLOAD,2024-06-12 12:07:33,14.98325453,0.0003271,70.0004,265.9999,266.6678,93.4107,-4.3532e-05,-6.12e-06,0.0,0 STARLINK-5621,1 55434U 23014AV  24164.50524948 -.00000612  00000-0 -43532-4 0  9997,2 55434  70.0004 265.9999 0003271 266.6678  93.4107 14.98325453 74983,6950.207,96.107,574.345,569.799,0.0
55434.0,STARLINK-5621,PAYLOAD,2024-06-12 16:55:57,14.9832823,0.0003436,69.9993,265.4967,266.3858,93.6908,1.3684e-05,7e-07,0.0,0 STARLINK-5621,1 55434U 23014AV  24164.70553164  .00000070  00000-0  13684-4 0  9992,2 55434  69.9993 265.4967 0003436 266.3858  93.6908 14.98328230 75952,6950.198,96.107,574.451,569.675,0.0
55434.0,STARLINK-5621,PAYLOAD,2024-06-13 10:33:26,14.98335095,0.000343,69.999,263.6445,267.8863,92.1903,0.00012013,1.341e-05,0.0,0 STARLINK-5621,1 55434U 23014AV  24165.43988587  .00001341  00000-0  12013-3 0  9990,2 55434  69.9990 263.6445 0003430 267.8863  92.1903 14.98335095 75121,6950.177,96.107,574.426,569.658,0.0
55434.0,STARLINK-5621,PAYLOAD,2024-06-13 13:45:42,14.98334471,0.0003199,70.0006,263.3082,267.8963,92.183,0.00012314,1.377e-05,0.0,0 STARLINK-5621,1 55434U 23014AV  24165.57340531  .00001377  00000-0  12314-3 0  9999,2 55434  70.0006 263.3082 0003199 267.8963  92.1830 14.98334471 76081,6950.179,96.107,574.267,569.821,0.0
55434.0,STARLINK-5621,PAYLOAD,2024-06-13 16:57:57,14.98364409,0.0003134,69.9993,262.9718,261.2408,98.8396,-0.00041506,-5.046e-05,0.0,0 STARLINK-5621,1 55434U 23014AV  24165.70691019 -.00005046  00000-0 -41506-3 0  9998,2 55434  69.9993 262.9718 0003134 261.2408  98.8396 14.98364409 76102,6950.086,96.105,574.13,569.773,0.0
55434.0,STARLINK-5621,PAYLOAD,2024-06-14 13:47:44,14.98317624,0.000324,69.9996,260.7838,269.6771,90.4017,5.8524e-05,6.05e-06,0.0,0 STARLINK-5621,1 55434U 23014AV  24166.57481914  .00000605  00000-0  58524-4 0  9998,2 55434  69.9996 260.7838 0003240 269.6771  90.4017 14.98317624 76236,6950.231,96.108,574.348,569.844,0.0
55434.0,STARLINK-5621,PAYLOAD,2024-06-14 17:00:00,14.98319533,0.0003238,69.9996,260.447,269.8325,90.2463,7.0968e-05,7.54e-06,0.0,0 STARLINK-5621,1 55434U 23014AV  24166.70833831  .00000754  00000-0  70968-4 0  9993,2 55434  69.9996 260.4470 0003238 269.8325  90.2463 14.98319533 76255,6950.225,96.108,574.341,569.84,0.0
55434.0,STARLINK-5621,PAYLOAD,2024-06-15 13:49:43,14.9834043,0.0003222,69.9995,258.2588,268.8427,91.2363,0.00013616,1.532e-05,0.0,0 STARLINK-5621,1 55434U 23014AV  24167.57620323  .00001532  00000-0  13616-3 0  9990,2 55434  69.9995 258.2588 0003222 268.8427  91.2363 14.98340430 76388,6950.161,96.106,574.265,569.786,0.0
55434.0,STARLINK-5621,PAYLOAD,2024-06-15 15:25:51,14.98341525,0.0003219,69.9995,258.0905,269.0115,91.0676,0.00014773,1.671e-05,0.0,0 STARLINK-5621,1 55434U 23014AV  24167.64296204  .00001671  00000-0  14773-3 0  9994,2 55434  69.9995 258.0905 0003219 269.0115  91.0676 14.98341525 76394,6950.157,96.106,574.26,569.785,0.0
55434.0,STARLINK-5621,PAYLOAD,2024-06-16 13:51:45,14.98331651,0.000323,69.9987,255.7315,264.2285,95.8506,0.00024168,2.792e-05,0.0,0 STARLINK-5621,1 55434U 23014AV  24168.57760498  .00002792  00000-0  24168-3 0  9992,2 55434  69.9987 255.7315 0003230 264.2285  95.8506 14.98331651 76531,6950.188,96.107,574.298,569.808,0.0
55434.0,STARLINK-5621,PAYLOAD,2024-06-16 15:27:53,14.98332399,0.000319,69.9988,255.563,263.6599,96.4197,0.00025713,2.977e-05,0.0,0 STARLINK-5621,1 55434U 23014AV  24168.64436425  .00002977  00000-0  25713-3 0  9992,2 55434  69.9988 255.5630 0003190 263.6599  96.4197 14.98332399 76540,6950.185,96.107,574.268,569.833,0.0
55434.0,STARLINK-5621,PAYLOAD,2024-06-17 12:17:38,14.98332612,0.0003284,69.9989,253.377,265.757,94.3214,-3.0972e-05,-4.63e-06,0.0,0 STARLINK-5621,1 55434U 23014AV  24169.51224768 -.00000463  00000-0 -30972-4 0  9998,2 55434  69.9989 253.3770 0003284 265.7570  94.3214 14.98332612 75733,6950.185,96.107,574.332,569.767,0.0
55434.0,STARLINK-5621,PAYLOAD,2024-06-18 12:19:38,14.98337281,0.0003464,69.9991,250.8513,269.4591,90.6171,4.5463e-05,4.5e-06,0.0,0 STARLINK-5621,1 55434U 23014AV  24170.51364076  .00000450  00000-0  45463-4 0  9992,2 55434  69.9991 250.8513 0003464 269.4591  90.6171 14.98337281 75881,6950.17,96.107,574.443,569.628,0.0
55434.0,STARLINK-5621,PAYLOAD,2024-06-18 13:55:46,14.98336199,0.0003411,69.9989,250.683,269.4063,90.6705,5.0514e-05,5.1e-06,0.0,0 STARLINK-5621,1 55434U 23014AV  24170.58040124  .00000510  00000-0  50514-4 0  9994,2 55434  69.9989 250.6830 0003411 269.4063  90.6705 14.98336199 76830,6950.174,96.107,574.409,569.668,0.0
55434.0,STARLINK-5621,PAYLOAD,2024-06-18 15:31:54,14.98336392,0.0003378,69.9989,250.5147,268.7832,91.294,5.5385e-05,5.68e-06,0.0,0 STARLINK-5621,1 55434U 23014AV  24170.64716079  .00000568  00000-0  55385-4 0  9994,2 55434  69.9989 250.5147 0003378 268.7832  91.2940 14.98336392 76842,6950.173,96.107,574.386,569.69,0.0
55434.0,STARLINK-5621,PAYLOAD,2024-06-19 12:21:39,14.98327317,0.0003261,69.9991,248.3264,270.6972,89.3813,0.00010123,1.115e-05,0.0,0 STARLINK-5621,1 55434U 23014AV  24171.51504529  .00001115  00000-0  10123-3 0  9995,2 55434  69.9991 248.3264 0003261 270.6972  89.3813 14.98327317 76033,6950.201,96.107,574.333,569.8,0.0
55434.0,STARLINK-5621,PAYLOAD,2024-06-19 13:57:47,14.98328739,0.0003318,69.9989,248.1581,269.1588,90.9191,0.00010409,1.149e-05,0.0,0 STARLINK-5621,1 55434U 23014AV  24171.58180416  .00001149  00000-0  10409-3 0  9991,2 55434  69.9989 248.1581 0003318 269.1588  90.9191 14.98328739 76989,6950.197,96.107,574.368,569.756,0.0
55434.0,STARLINK-5621,PAYLOAD,2024-06-19 15:33:55,14.98357945,0.0003419,69.9989,247.9897,270.021,90.0557,-0.00040895,-4.973e-05,0.0,0 STARLINK-5621,1 55434U 23014AV  24171.64855456 -.00004973  00000-0 -40895-3 0  9993,2 55434  69.9989 247.9897 0003419 270.0210  90.0557 14.98357945 76057,6950.106,96.105,574.348,569.595,0.0
55434.0,STARLINK-5621,PAYLOAD,2024-06-20 13:59:48,14.98333796,0.0003741,69.9991,245.634,267.9875,92.0856,8.4566e-06,8e-08,0.0,0 STARLINK-5621,1 55434U 23014AV  24172.58320194  .00000008  00000-0  84566-5 0  9991,2 55434  69.9991 245.6340 0003741 267.9875  92.0856 14.98333796 77130,6950.181,96.107,574.646,569.446,0.0
55434.0,STARLINK-5621,PAYLOAD,2024-06-20 15:35:56,14.98335281,0.0003758,69.999,245.4657,267.3797,92.6932,1.2857e-05,6e-07,0.0,0 STARLINK-5621,1 55434U 23014AV  24172.64996060  .00000060  00000-0  12857-4 0  9990,2 55434  69.9990 245.4657 0003758 267.3797  92.6932 14.98335281 76202,6950.177,96.107,574.653,569.43,0.0
55434.0,STARLINK-5621,PAYLOAD,2024-06-21 14:01:49,14.98331623,0.0003257,69.9989,243.1087,267.7535,92.3252,4.8754e-05,4.89e-06,0.0,0 STARLINK-5621,1 55434U 23014AV  24173.58460226  .00000489  00000-0  48754-4 0  9994,2 55434  69.9989 243.1087 0003257 267.7535  92.3252 14.98331623 77287,6950.188,96.107,574.317,569.789,0.0
55434.0,STARLINK-5621,PAYLOAD,2024-06-22 12:27:42,14.98326928,0.0003282,69.9988,240.7522,267.8011,92.2773,-5.2402e-06,-1.56e-06,0.0,0 STARLINK-5621,1 55434U 23014AV  24174.51924726 -.00000156  00000-0 -52402-5 0  9997,2 55434  69.9988 240.7522 0003282 267.8011  92.2773 14.98326928 76481,6950.202,96.107,574.348,569.786,0.0
55434.0,STARLINK-5621,PAYLOAD,2024-06-22 14:03:50,14.98327613,0.0003282,69.9989,240.5839,267.8709,92.2074,1.8028e-06,-7.2e-07,0.0,0 STARLINK-5621,1 55434U 23014AV  24174.58600673 -.00000072  00000-0  18028-5 0  9998,2 55434  69.9989 240.5839 0003282 267.8709  92.2074 14.98327613 77437,6950.2,96.107,574.346,569.784,0.0
55434.0,STARLINK-5621,PAYLOAD,2024-06-23 04:29:03,14.98332685,0.0003351,69.9987,239.0692,268.3517,91.7258,7.4606e-05,7.97e-06,0.0,0 STARLINK-5621,1 55434U 23014AV  24175.18684139  .00000797  00000-0  74606-4 0  9990,2 55434  69.9987 239.0692 0003351 268.3517  91.7258 14.98332685 76583,6950.185,96.107,574.379,569.721,0.0
55434.0,STARLINK-5621,PAYLOAD,2024-06-23 14:05:51,14.98334252,0.0003355,69.9988,238.059,266.8753,93.2022,7.0456e-05,7.48e-06,0.0,0 STARLINK-5621,1 55434U 23014AV  24175.58739970  .00000748  00000-0  70456-4 0  9993,2 55434  69.9988 238.0590 0003355 266.8753  93.2022 14.98334252 77588,6950.18,96.107,574.377,569.713,0.0
55434.0,STARLINK-5621,PAYLOAD,2024-06-24 04:31:03,14.98333516,0.000346,69.9985,236.5439,265.5878,94.4885,9.7026e-05,1.065e-05,0.0,0 STARLINK-5621,1 55434U 23014AV  24176.18823809  .00001065  00000-0  97026-4 0  9990,2 55434  69.9985 236.5439 0003460 265.5878  94.4885 14.98333516 76739,6950.182,96.107,574.452,569.642,0.0
